OBJECT_NAME,OBJECT_ID,EPOCH,MEAN_MOTION,ECCENTRICITY,INCLINATION,RA_OF_ASC_NODE,ARG_OF_PERICENTER,MEAN_ANOMALY,EPHEMERIS_TYPE,CLASSIFICATION_TYPE,NORAD_CAT_ID,ELEMENT_SET_NO,REV_AT_EPOCH,BSTAR,MEAN_MOTION_DOT,MEAN_MOTION_DDOT
SAUDISAT 2,2004-025F,2026-06-03T13:34:49.259424,14.56675406,.00242843,98.5505,154.1960,341.4783,18.5528,0,U,28371,999,16376,.87637592E-4,.343E-5,0
COSMOS 2407,2004-028A,2026-06-03T09:43:43.631904,13.76333553,.00378882,82.9606,85.0406,291.9152,161.7469,0,U,28380,999,9798,.55241907E-4,.69E-6,0
COSMOS 2414,2005-002A,2026-06-03T20:08:54.790656,13.87925434,.00404128,82.9507,53.7429,9.5848,350.6077,0,U,28521,999,8196,.60333547E-4,.88E-6,0
INMARSAT 4-F1,2005-009A,2026-06-03T21:17:53.888064,1.00272499,.00030204,5.1502,42.7333,33.1390,314.0613,0,U,28628,999,7753,0,.43E-6,0
SJ-7,2005-024A,2026-06-03T14:35:30.883776,15.21323292,.00173586,97.7288,184.3480,81.5837,278.7365,0,U,28737,999,14596,.40040211E-3,.8928E-4,0
CUBESAT XI-V,2005-043F,2026-06-01T08:48:31.503456,14.72584583,.00128374,98.2967,307.6587,254.1655,105.8136,0,U,28895,999,9942,.27161207E-3,.1677E-4,0
HINODE (SOLAR-B),2006-041A,2026-06-03T21:35:24.539712,14.68603120,.00167259,98.0548,171.2481,334.8509,25.1880,0,U,29479,999,5292,.15586627E-3,.858E-5,0
SHIJIAN-6 02B (SJ-6 02B),2006-046B,2026-06-03T22:48:10.933056,15.01339889,.0014231,97.7155,184.0899,99.3003,260.9832,0,U,29506,999,6875,.1128976E-3,.1396E-4,0
DMSP 5D-3 F17 (USA 191),2006-050A,2026-06-03T21:01:22.794528,14.14990990,.00113252,98.7378,161.7184,93.3870,266.8600,0,U,29522,999,1054,.46350861E-4,.47E-6,0
LAPAN-TUBSAT,2007-001A,2026-06-03T22:06:45.331200,14.85934847,.00109377,98.1337,153.8465,225.3275,134.7049,0,U,29709,999,4918,.11574285E-4,.43E-6,0
HAIYANG-1B,2007-010A,2026-06-03T13:55:35.735808,14.31023350,.00123401,98.3489,136.9535,239.3242,120.6726,0,U,31113,999,99868,.54011753E-4,.1E-5,0
COSMO-SKYMED 2,2007-059A,2026-06-03T22:17:43.232640,14.82160034,.00014633,97.8884,338.7195,87.9261,272.2120,0,U,32376,999,4,.62988648E-4,.449E-5,0
CARTOSAT-2A,2008-021A,2026-06-03T22:09:55.496736,14.79218471,.00123711,97.7636,204.0843,148.1042,212.0922,0,U,32783,999,97684,.11762353E-3,.824E-5,0
CUTE-1.7+APD II (CO-65),2008-021C,2026-06-03T20:34:47.872992,15.09317306,.00107297,97.8272,136.0010,77.7749,282.4680,0,U,32785,999,98318,.32833308E-3,.5176E-4,0
SEEDS II (CO-66),2008-021J,2026-06-03T13:18:22.326048,15.32257900,.00029913,97.7515,151.8069,42.0128,318.1342,0,U,32791,999,98520,.64842083E-3,.20146E-3,0
YUBILEINY (RS30),2008-025A,2026-06-03T23:31:58.725984,12.43178796,.0019415,82.5045,3.6571,343.3825,16.6616,0,U,32953,999,81805,.11265897E-3,.25E-6,0
FENGYUN 3A,2008-026A,2026-06-03T10:39:20.171808,14.19568113,.00089901,98.6881,95.5346,160.5127,199.6395,0,U,32958,999,93345,.67514327E-4,.99E-6,0
HUANJING 1A (HJ-1A),2008-041A,2026-06-03T22:48:32.153760,14.83953791,.00187253,97.6677,141.3013,177.1085,183.0241,0,U,33320,999,95644,.92193779E-4,.717E-5,0
HUANJING 1B (HJ-1B),2008-041B,2026-06-03T23:32:33.262656,14.83291634,.00350107,97.6511,144.5418,225.3679,134.4680,0,U,33321,999,95645,.84829359E-4,.649E-5,0
SHIJIAN-6 03A (SJ-6 03A),2008-053A,2026-06-03T22:09:44.542944,15.17027839,.00128261,97.8413,187.7835,62.2230,298.0301,0,U,33408,999,96095,.3029897E-3,.5932E-4,0
SHIJIAN-6 03B (SJ-6 03B),2008-053B,2026-06-03T22:18:10.852128,15.04269937,.00206995,97.8575,174.6004,85.9848,274.3743,0,U,33409,999,96075,.15990702E-3,.217E-4,0
